CCSDS_OMM_VERS = 2.0
CREATION_DATE  = 
ORIGINATOR     = 

OBJECT_NAME    = SL-16 R/B
OBJECT_ID      = 1998-045B
CENTER_NAME    = EARTH
REF_FRAME      = TEME
TIME_SYSTEM    = UTC
MEAN_ELEMENT_THEORY = SGP/SGP4

EPOCH          = 2026-03-07T00:43:45.439392
MEAN_MOTION    = 14.16189284
ECCENTRICITY   = .0006592
INCLINATION    = 71.0113
RA_OF_ASC_NODE = 187.1655
ARG_OF_PERICENTER = 12.1733
MEAN_ANOMALY   = 347.9549

EPHEMERIS_TYPE = 0
CLASSIFICATION_TYPE = U
NORAD_CAT_ID   = 25407
ELEMENT_SET_NO = 999
REV_AT_EPOCH   = 42672
BSTAR          = .1992E-4
MEAN_MOTION_DOT = -.8E-7
MEAN_MOTION_DDOT = 0

CCSDS_OMM_VERS = 2.0
CREATION_DATE  = 
ORIGINATOR     = 

OBJECT_NAME    = ISS (ZARYA)
OBJECT_ID      = 1998-067A
CENTER_NAME    = EARTH
REF_FRAME      = TEME
TIME_SYSTEM    = UTC
MEAN_ELEMENT_THEORY = SGP/SGP4

EPOCH          = 2026-03-06T20:49:01.409088
MEAN_MOTION    = 15.48482048
ECCENTRICITY   = .0008109
INCLINATION    = 51.6318
RA_OF_ASC_NODE = 86.3097
ARG_OF_PERICENTER = 164.5613
MEAN_ANOMALY   = 195.5624

EPHEMERIS_TYPE = 0
CLASSIFICATION_TYPE = U
NORAD_CAT_ID   = 25544
ELEMENT_SET_NO = 999
REV_AT_EPOCH   = 55589
BSTAR          = .16627E-3
MEAN_MOTION_DOT = .8564E-4
MEAN_MOTION_DDOT = 0

CCSDS_OMM_VERS = 2.0
CREATION_DATE  = 
ORIGINATOR     = 

OBJECT_NAME    = CZ-4B R/B
OBJECT_ID      = 1999-025C
CENTER_NAME    = EARTH
REF_FRAME      = TEME
TIME_SYSTEM    = UTC
MEAN_ELEMENT_THEORY = SGP/SGP4

EPOCH          = 2026-03-07T03:01:10.389216
MEAN_MOTION    = 14.18264762
ECCENTRICITY   = .0036892
INCLINATION    = 98.6631
RA_OF_ASC_NODE = 110.4680
ARG_OF_PERICENTER = 354.0366
MEAN_ANOMALY   = 67.6719

EPHEMERIS_TYPE = 0
CLASSIFICATION_TYPE = U
NORAD_CAT_ID   = 25732
ELEMENT_SET_NO = 999
REV_AT_EPOCH   = 38780
BSTAR          = .45517E-4
MEAN_MOTION_DOT = .51E-6
MEAN_MOTION_DDOT = 0

CCSDS_OMM_VERS = 2.0
CREATION_DATE  = 
ORIGINATOR     = 

OBJECT_NAME    = OKEAN-O
OBJECT_ID      = 1999-039A
CENTER_NAME    = EARTH
REF_FRAME      = TEME
TIME_SYSTEM    = UTC
MEAN_ELEMENT_THEORY = SGP/SGP4

EPOCH          = 2026-03-07T03:37:27.797088
MEAN_MOTION    = 14.80330216
ECCENTRICITY   = .0001314
INCLINATION    = 97.9447
RA_OF_ASC_NODE = 126.0683
ARG_OF_PERICENTER = 69.7797
MEAN_ANOMALY   = 290.3556

EPHEMERIS_TYPE = 0
CLASSIFICATION_TYPE = U
NORAD_CAT_ID   = 25860
ELEMENT_SET_NO = 999
REV_AT_EPOCH   = 43401
BSTAR          = .11497E-3
MEAN_MOTION_DOT = .824E-5
MEAN_MOTION_DDOT = 0

CCSDS_OMM_VERS = 2.0
CREATION_DATE  = 
ORIGINATOR     = 

OBJECT_NAME    = SL-16 R/B
OBJECT_ID      = 1999-039B
CENTER_NAME    = EARTH
REF_FRAME      = TEME
TIME_SYSTEM    = UTC
MEAN_ELEMENT_THEORY = SGP/SGP4

EPOCH          = 2026-03-07T03:11:54.612672
MEAN_MOTION    = 14.81726893
ECCENTRICITY   = .0013466
INCLINATION    = 97.9971
RA_OF_ASC_NODE = 125.2338
ARG_OF_PERICENTER = 265.2812
MEAN_ANOMALY   = 94.6862

EPHEMERIS_TYPE = 0
CLASSIFICATION_TYPE = U
NORAD_CAT_ID   = 25861
ELEMENT_SET_NO = 999
REV_AT_EPOCH   = 43648
BSTAR          = .94513E-4
MEAN_MOTION_DOT = .692E-5
MEAN_MOTION_DDOT = 0

CCSDS_OMM_VERS = 2.0
CREATION_DATE  = 
ORIGINATOR     = 

OBJECT_NAME    = DELTA 2 R/B
OBJECT_ID      = 1999-041E
CENTER_NAME    = EARTH
REF_FRAME      = TEME
TIME_SYSTEM    = UTC
MEAN_ELEMENT_THEORY = SGP/SGP4

EPOCH          = 2026-03-07T00:50:08.291616
MEAN_MOTION    = 14.11828961
ECCENTRICITY   = .0502343
INCLINATION    = 51.7637
RA_OF_ASC_NODE = 311.8847
ARG_OF_PERICENTER = 340.6027
MEAN_ANOMALY   = 17.6374

EPHEMERIS_TYPE = 0
CLASSIFICATION_TYPE = U
NORAD_CAT_ID   = 25876
ELEMENT_SET_NO = 999
REV_AT_EPOCH   = 36265
BSTAR          = .2364E-3
MEAN_MOTION_DOT = .1232E-4
MEAN_MOTION_DDOT = 0

CCSDS_OMM_VERS = 2.0
CREATION_DATE  = 
ORIGINATOR     = 

OBJECT_NAME    = HELIOS 1B
OBJECT_ID      = 1999-064A
CENTER_NAME    = EARTH
REF_FRAME      = TEME
TIME_SYSTEM    = UTC
MEAN_ELEMENT_THEORY = SGP/SGP4

EPOCH          = 2026-03-07T03:47:31.827264
MEAN_MOTION    = 14.87686022
ECCENTRICITY   = .0002474
INCLINATION    = 98.1696
RA_OF_ASC_NODE = 328.3272
ARG_OF_PERICENTER = 78.3985
MEAN_ANOMALY   = 281.7508

EPHEMERIS_TYPE = 0
CLASSIFICATION_TYPE = U
NORAD_CAT_ID   = 25977
ELEMENT_SET_NO = 999
REV_AT_EPOCH   = 68488
BSTAR          = .243E-3
MEAN_MOTION_DOT = .2155E-4
MEAN_MOTION_DDOT = 0

CCSDS_OMM_VERS = 2.0
CREATION_DATE  = 
ORIGINATOR     = 

OBJECT_NAME    = TERRA
OBJECT_ID      = 1999-068A
CENTER_NAME    = EARTH
REF_FRAME      = TEME
TIME_SYSTEM    = UTC
MEAN_ELEMENT_THEORY = SGP/SGP4

EPOCH          = 2026-03-07T04:22:44.122368
MEAN_MOTION    = 14.61011101
ECCENTRICITY   = .0002549
INCLINATION    = 97.9598
RA_OF_ASC_NODE = 119.7129
ARG_OF_PERICENTER = 157.7007
MEAN_ANOMALY   = 269.8251

EPHEMERIS_TYPE = 0
CLASSIFICATION_TYPE = U
NORAD_CAT_ID   = 25994
ELEMENT_SET_NO = 999
REV_AT_EPOCH   = 39471
BSTAR          = .11129E-3
MEAN_MOTION_DOT = .502E-5
MEAN_MOTION_DDOT = 0

CCSDS_OMM_VERS = 2.0
CREATION_DATE  = 
ORIGINATOR     = 

OBJECT_NAME    = SL-16 R/B
OBJECT_ID      = 2000-006B
CENTER_NAME    = EARTH
REF_FRAME      = TEME
TIME_SYSTEM    = UTC
MEAN_ELEMENT_THEORY = SGP/SGP4

EPOCH          = 2026-03-07T04:28:26.596416
MEAN_MOTION    = 14.15825660
ECCENTRICITY   = .0016954
INCLINATION    = 71.0011
RA_OF_ASC_NODE = 103.1015
ARG_OF_PERICENTER = 193.7432
MEAN_ANOMALY   = 166.3232

EPHEMERIS_TYPE = 0
CLASSIFICATION_TYPE = U
NORAD_CAT_ID   = 26070
ELEMENT_SET_NO = 999
REV_AT_EPOCH   = 34820
BSTAR          = .3305E-4
MEAN_MOTION_DOT = .17E-6
MEAN_MOTION_DDOT = 0

CCSDS_OMM_VERS = 2.0
CREATION_DATE  = 
ORIGINATOR     = 

OBJECT_NAME    = TITAN 4B R/B
OBJECT_ID      = 2000-047B
CENTER_NAME    = EARTH
REF_FRAME      = TEME
TIME_SYSTEM    = UTC
MEAN_ELEMENT_THEORY = SGP/SGP4

EPOCH          = 2026-03-07T04:17:21.999840
MEAN_MOTION    = 15.09530446
ECCENTRICITY   = .0038389
INCLINATION    = 67.9896
RA_OF_ASC_NODE = 47.5704
ARG_OF_PERICENTER = 38.3626
MEAN_ANOMALY   = 322.0242

EPHEMERIS_TYPE = 0
CLASSIFICATION_TYPE = U
NORAD_CAT_ID   = 26474
ELEMENT_SET_NO = 999
REV_AT_EPOCH   = 39253
BSTAR          = .32911E-3
MEAN_MOTION_DOT = .525E-4
MEAN_MOTION_DDOT = 0

CCSDS_OMM_VERS = 2.0
CREATION_DATE  = 
ORIGINATOR     = 

OBJECT_NAME    = ENVISAT
OBJECT_ID      = 2002-009A
CENTER_NAME    = EARTH
REF_FRAME      = TEME
TIME_SYSTEM    = UTC
MEAN_ELEMENT_THEORY = SGP/SGP4

EPOCH          = 2026-03-06T23:31:07.570272
MEAN_MOTION    = 14.39035629
ECCENTRICITY   = .000133
INCLINATION    = 98.3726
RA_OF_ASC_NODE = 19.6419
ARG_OF_PERICENTER = 84.0199
MEAN_ANOMALY   = 29.4965

EPHEMERIS_TYPE = 0
CLASSIFICATION_TYPE = U
NORAD_CAT_ID   = 27386
ELEMENT_SET_NO = 999
REV_AT_EPOCH   = 25878
BSTAR          = .67966E-4
MEAN_MOTION_DOT = .167E-5
MEAN_MOTION_DDOT = 0

CCSDS_OMM_VERS = 2.0
CREATION_DATE  = 
ORIGINATOR     = 

OBJECT_NAME    = IDEFIX & ARIANE 42P R/B
OBJECT_ID      = 2002-021B
CENTER_NAME    = EARTH
REF_FRAME      = TEME
TIME_SYSTEM    = UTC
MEAN_ELEMENT_THEORY = SGP/SGP4

EPOCH          = 2026-03-07T02:50:45.615264
MEAN_MOTION    = 14.31023761
ECCENTRICITY   = .0011422
INCLINATION    = 98.5867
RA_OF_ASC_NODE = 4.7556
ARG_OF_PERICENTER = 189.8444
MEAN_ANOMALY   = 170.2516

EPHEMERIS_TYPE = 0
CLASSIFICATION_TYPE = U
NORAD_CAT_ID   = 27422
ELEMENT_SET_NO = 999
REV_AT_EPOCH   = 24365
BSTAR          = .1519E-3
MEAN_MOTION_DOT = .356E-5
MEAN_MOTION_DDOT = 0

